[{
    "zipCode": "07005",
    "city": "",
    "state": "NJ",
    "delivery": "0"
  }, {
    "zipCode": "07046",
    "city": "",
    "state": "NJ",
    "delivery": "0"
  }, {
    "zipCode": "07054",
    "city": "",
    "state": "NJ",
    "delivery": "0"
  }, {
    "zipCode": "07801",
    "city": "",
    "state": "NJ",
    "delivery": "0"
  }, {
    "zipCode": "07803",
    "city": "",
    "state": "NJ",
    "delivery": "0"
  }, {
    "zipCode": "07828",
    "city": "",
    "state": "NJ",
    "delivery": "0"
  }, {
    "zipCode": "07834",
    "city": "",
    "state": "NJ",
    "delivery": "0"
  }, {
    "zipCode": "07836",
    "city": "",
    "state": "NJ",
    "delivery": "0"
  }, {
    "zipCode": "07842",
    "city": "",
    "state": "NJ",
    "delivery": "0"
  }, {
    "zipCode": "07843",
    "city": "",
    "state": "NJ",
    "delivery": "0"
  }, {
    "zipCode": "07847",
    "city": "",
    "state": "NJ",
    "delivery": "0"
  }, {
    "zipCode": "07849",
    "city": "",
    "state": "NJ",
    "delivery": "0"
  }, {
    "zipCode": "07850",
    "city": "",
    "state": "NJ",
    "delivery": "0"
  }, {
    "zipCode": "07852",
    "city": "",
    "state": "NJ",
    "delivery": "0"
  }, {
    "zipCode": "07856",
    "city": "",
    "state": "NJ",
    "delivery": "0"
  }, {
    "zipCode": "07857",
    "city": "",
    "state": "NJ",
    "delivery": "0"
  }, {
    "zipCode": "07866",
    "city": "",
    "state": "NJ",
    "delivery": "0"
  }, {
    "zipCode": "07869",
    "city": "",
    "state": "NJ",
    "delivery": "0"
  }, {
    "zipCode": "07874",
    "city": "",
    "state": "NJ",
    "delivery": "0"
  }, {
    "zipCode": "07876",
    "city": "",
    "state": "NJ",
    "delivery": "0"
  }, {
    "zipCode": "07878",
    "city": "",
    "state": "NJ",
    "delivery": "0"
  }, {
    "zipCode": "07885",
    "city": "",
    "state": "NJ",
    "delivery": "0"
  }, {
    "zipCode": "07924",
    "city": "",
    "state": "NJ",
    "delivery": "0"
  }, {
    "zipCode": "07926",
    "city": "",
    "state": "NJ",
    "delivery": "0"
  }, {
    "zipCode": "07927",
    "city": "",
    "state": "NJ",
    "delivery": "0"
  }, {
    "zipCode": "07930",
    "city": "",
    "state": "NJ",
    "delivery": "0"
  }, {
    "zipCode": "07934",
    "city": "",
    "state": "NJ",
    "delivery": "0"
  }, {
    "zipCode": "07935",
    "city": "",
    "state": "NJ",
    "delivery": "0"
  }, {
    "zipCode": "07945",
    "city": "",
    "state": "NJ",
    "delivery": "0"
  }, {
    "zipCode": "07950",
    "city": "",
    "state": "NJ",
    "delivery": "0"
  }, {
    "zipCode": "07960",
    "city": "",
    "state": "NJ",
    "delivery": "0"
  }, {
    "zipCode": "07961",
    "city": "",
    "state": "NJ",
    "delivery": "0"
  }, {
    "zipCode": "07970",
    "city": "",
    "state": "NJ",
    "delivery": "0"
  }, {
    "zipCode": "07976",
    "city": "",
    "state": "NJ",
    "delivery": "0"
  }, {
    "zipCode": "07981",
    "city": "",
    "state": "NJ",
    "delivery": "0"
  }, {
    "zipCode": "07001",
    "city": "",
    "state": "NJ",
    "delivery": "50"
  }, {
    "zipCode": "07003",
    "city": "",
    "state": "NJ",
    "delivery": "50"
  }, {
    "zipCode": "07004",
    "city": "",
    "state": "NJ",
    "delivery": "50"
  }, {
    "zipCode": "07006",
    "city": "",
    "state": "NJ",
    "delivery": "50"
  }, {
    "zipCode": "07009",
    "city": "",
    "state": "NJ",
    "delivery": "50"
  }, {
    "zipCode": "07011",
    "city": "",
    "state": "NJ",
    "delivery": "50"
  }, {
    "zipCode": "07012",
    "city": "",
    "state": "NJ",
    "delivery": "50"
  }, {
    "zipCode": "07013",
    "city": "",
    "state": "NJ",
    "delivery": "50"
  }, {
    "zipCode": "07014",
    "city": "",
    "state": "NJ",
    "delivery": "50"
  }, {
    "zipCode": "07016",
    "city": "",
    "state": "NJ",
    "delivery": "50"
  }, {
    "zipCode": "07017",
    "city": "",
    "state": "NJ",
    "delivery": "50"
  }, {
    "zipCode": "07018",
    "city": "",
    "state": "NJ",
    "delivery": "50"
  }, {
    "zipCode": "07021",
    "city": "",
    "state": "NJ",
    "delivery": "50"
  }, {
    "zipCode": "07023",
    "city": "",
    "state": "NJ",
    "delivery": "50"
  }, {
    "zipCode": "07026",
    "city": "",
    "state": "NJ",
    "delivery": "50"
  }, {
    "zipCode": "07027",
    "city": "",
    "state": "NJ",
    "delivery": "50"
  }, {
    "zipCode": "07028",
    "city": "",
    "state": "NJ",
    "delivery": "50"
  }, {
    "zipCode": "07029",
    "city": "",
    "state": "NJ",
    "delivery": "50"
  }, {
    "zipCode": "07031",
    "city": "",
    "state": "NJ",
    "delivery": "50"
  }, {
    "zipCode": "07033",
    "city": "",
    "state": "NJ",
    "delivery": "50"
  }, {
    "zipCode": "07034",
    "city": "",
    "state": "NJ",
    "delivery": "50"
  }, {
    "zipCode": "07035",
    "city": "",
    "state": "NJ",
    "delivery": "50"
  }, {
    "zipCode": "07036",
    "city": "",
    "state": "NJ",
    "delivery": "50"
  }, {
    "zipCode": "07039",
    "city": "",
    "state": "NJ",
    "delivery": "50"
  }, {
    "zipCode": "07040",
    "city": "",
    "state": "NJ",
    "delivery": "50"
  }, {
    "zipCode": "07041",
    "city": "",
    "state": "NJ",
    "delivery": "50"
  }, {
    "zipCode": "07042",
    "city": "",
    "state": "NJ",
    "delivery": "50"
  }, {
    "zipCode": "07043",
    "city": "",
    "state": "NJ",
    "delivery": "50"
  }, {
    "zipCode": "07044",
    "city": "",
    "state": "NJ",
    "delivery": "50"
  }, {
    "zipCode": "07045",
    "city": "",
    "state": "NJ",
    "delivery": "50"
  }, {
    "zipCode": "07050",
    "city": "",
    "state": "NJ",
    "delivery": "50"
  }, {
    "zipCode": "07052",
    "city": "",
    "state": "NJ",
    "delivery": "50"
  }, {
    "zipCode": "07055",
    "city": "",
    "state": "NJ",
    "delivery": "50"
  }, {
    "zipCode": "07057",
    "city": "",
    "state": "NJ",
    "delivery": "50"
  }, {
    "zipCode": "07058",
    "city": "",
    "state": "NJ",
    "delivery": "50"
  }, {
    "zipCode": "07059",
    "city": "",
    "state": "NJ",
    "delivery": "50"
  }, {
    "zipCode": "07060",
    "city": "",
    "state": "NJ",
    "delivery": "50"
  }, {
    "zipCode": "07062",
    "city": "",
    "state": "NJ",
    "delivery": "50"
  }, {
    "zipCode": "07063",
    "city": "",
    "state": "NJ",
    "delivery": "50"
  }, {
    "zipCode": "07065",
    "city": "",
    "state": "NJ",
    "delivery": "50"
  }, {
    "zipCode": "07066",
    "city": "",
    "state": "NJ",
    "delivery": "50"
  }, {
    "zipCode": "07067",
    "city": "",
    "state": "NJ",
    "delivery": "50"
  }, {
    "zipCode": "07068",
    "city": "",
    "state": "NJ",
    "delivery": "50"
  }, {
    "zipCode": "07069",
    "city": "",
    "state": "NJ",
    "delivery": "50"
  }, {
    "zipCode": "07070",
    "city": "",
    "state": "NJ",
    "delivery": "50"
  }, {
    "zipCode": "07071",
    "city": "",
    "state": "NJ",
    "delivery": "50"
  }, {
    "zipCode": "07076",
    "city": "",
    "state": "NJ",
    "delivery": "50"
  }, {
    "zipCode": "07078",
    "city": "",
    "state": "NJ",
    "delivery": "50"
  }, {
    "zipCode": "07079",
    "city": "",
    "state": "NJ",
    "delivery": "50"
  }, {
    "zipCode": "07080",
    "city": "",
    "state": "NJ",
    "delivery": "50"
  }, {
    "zipCode": "07081",
    "city": "",
    "state": "NJ",
    "delivery": "50"
  }, {
    "zipCode": "07082",
    "city": "",
    "state": "NJ",
    "delivery": "50"
  }, {
    "zipCode": "07083",
    "city": "",
    "state": "NJ",
    "delivery": "50"
  }, {
    "zipCode": "07088",
    "city": "",
    "state": "NJ",
    "delivery": "50"
  }, {
    "zipCode": "07090",
    "city": "",
    "state": "NJ",
    "delivery": "50"
  }, {
    "zipCode": "07092",
    "city": "",
    "state": "NJ",
    "delivery": "50"
  }, {
    "zipCode": "07102",
    "city": "",
    "state": "NJ",
    "delivery": "50"
  }, {
    "zipCode": "07103",
    "city": "",
    "state": "NJ",
    "delivery": "50"
  }, {
    "zipCode": "07104",
    "city": "",
    "state": "NJ",
    "delivery": "50"
  }, {
    "zipCode": "07105",
    "city": "",
    "state": "NJ",
    "delivery": "50"
  }, {
    "zipCode": "07106",
    "city": "",
    "state": "NJ",
    "delivery": "50"
  }, {
    "zipCode": "07107",
    "city": "",
    "state": "NJ",
    "delivery": "50"
  }, {
    "zipCode": "07108",
    "city": "",
    "state": "NJ",
    "delivery": "50"
  }, {
    "zipCode": "07109",
    "city": "",
    "state": "NJ",
    "delivery": "50"
  }, {
    "zipCode": "07110",
    "city": "",
    "state": "NJ",
    "delivery": "50"
  }, {
    "zipCode": "07111",
    "city": "",
    "state": "NJ",
    "delivery": "50"
  }, {
    "zipCode": "07112",
    "city": "",
    "state": "NJ",
    "delivery": "50"
  }, {
    "zipCode": "07114",
    "city": "",
    "state": "NJ",
    "delivery": "50"
  }, {
    "zipCode": "07201",
    "city": "",
    "state": "NJ",
    "delivery": "50"
  }, {
    "zipCode": "07202",
    "city": "",
    "state": "NJ",
    "delivery": "50"
  }, {
    "zipCode": "07203",
    "city": "",
    "state": "NJ",
    "delivery": "50"
  }, {
    "zipCode": "07204",
    "city": "",
    "state": "NJ",
    "delivery": "50"
  }, {
    "zipCode": "07205",
    "city": "",
    "state": "NJ",
    "delivery": "50"
  }, {
    "zipCode": "07206",
    "city": "",
    "state": "NJ",
    "delivery": "50"
  }, {
    "zipCode": "07208",
    "city": "",
    "state": "NJ",
    "delivery": "50"
  }, {
    "zipCode": "07403",
    "city": "",
    "state": "NJ",
    "delivery": "50"
  }, {
    "zipCode": "07405",
    "city": "",
    "state": "NJ",
    "delivery": "50"
  }, {
    "zipCode": "07407",
    "city": "",
    "state": "NJ",
    "delivery": "50"
  }, {
    "zipCode": "07410",
    "city": "",
    "state": "NJ",
    "delivery": "50"
  }, {
    "zipCode": "07416",
    "city": "",
    "state": "NJ",
    "delivery": "50"
  }, {
    "zipCode": "07417",
    "city": "",
    "state": "NJ",
    "delivery": "50"
  }, {
    "zipCode": "07419",
    "city": "",
    "state": "NJ",
    "delivery": "50"
  }, {
    "zipCode": "07420",
    "city": "",
    "state": "NJ",
    "delivery": "50"
  }, {
    "zipCode": "07421",
    "city": "",
    "state": "NJ",
    "delivery": "50"
  }, {
    "zipCode": "07422",
    "city": "",
    "state": "NJ",
    "delivery": "50"
  }, {
    "zipCode": "07424",
    "city": "",
    "state": "NJ",
    "delivery": "50"
  }, {
    "zipCode": "07432",
    "city": "",
    "state": "NJ",
    "delivery": "50"
  }, {
    "zipCode": "07435",
    "city": "",
    "state": "NJ",
    "delivery": "50"
  }, {
    "zipCode": "07436",
    "city": "",
    "state": "NJ",
    "delivery": "50"
  }, {
    "zipCode": "07438",
    "city": "",
    "state": "NJ",
    "delivery": "50"
  }, {
    "zipCode": "07439",
    "city": "",
    "state": "NJ",
    "delivery": "50"
  }, {
    "zipCode": "07440",
    "city": "",
    "state": "NJ",
    "delivery": "50"
  }, {
    "zipCode": "07442",
    "city": "",
    "state": "NJ",
    "delivery": "50"
  }, {
    "zipCode": "07444",
    "city": "",
    "state": "NJ",
    "delivery": "50"
  }, {
    "zipCode": "07452",
    "city": "",
    "state": "NJ",
    "delivery": "50"
  }, {
    "zipCode": "07456",
    "city": "",
    "state": "NJ",
    "delivery": "50"
  }, {
    "zipCode": "07457",
    "city": "",
    "state": "NJ",
    "delivery": "50"
  }, {
    "zipCode": "07460",
    "city": "",
    "state": "NJ",
    "delivery": "50"
  }, {
    "zipCode": "07461",
    "city": "",
    "state": "NJ",
    "delivery": "50"
  }, {
    "zipCode": "07462",
    "city": "",
    "state": "NJ",
    "delivery": "50"
  }, {
    "zipCode": "07465",
    "city": "",
    "state": "NJ",
    "delivery": "50"
  }, {
    "zipCode": "07470",
    "city": "",
    "state": "NJ",
    "delivery": "50"
  }, {
    "zipCode": "07480",
    "city": "",
    "state": "NJ",
    "delivery": "50"
  }, {
    "zipCode": "07481",
    "city": "",
    "state": "NJ",
    "delivery": "50"
  }, {
    "zipCode": "07501",
    "city": "",
    "state": "NJ",
    "delivery": "50"
  }, {
    "zipCode": "07502",
    "city": "",
    "state": "NJ",
    "delivery": "50"
  }, {
    "zipCode": "07503",
    "city": "",
    "state": "NJ",
    "delivery": "50"
  }, {
    "zipCode": "07504",
    "city": "",
    "state": "NJ",
    "delivery": "50"
  }, {
    "zipCode": "07505",
    "city": "",
    "state": "NJ",
    "delivery": "50"
  }, {
    "zipCode": "07506",
    "city": "",
    "state": "NJ",
    "delivery": "50"
  }, {
    "zipCode": "07508",
    "city": "",
    "state": "NJ",
    "delivery": "50"
  }, {
    "zipCode": "07512",
    "city": "",
    "state": "NJ",
    "delivery": "50"
  }, {
    "zipCode": "07513",
    "city": "",
    "state": "NJ",
    "delivery": "50"
  }, {
    "zipCode": "07514",
    "city": "",
    "state": "NJ",
    "delivery": "50"
  }, {
    "zipCode": "07522",
    "city": "",
    "state": "NJ",
    "delivery": "50"
  }, {
    "zipCode": "07524",
    "city": "",
    "state": "NJ",
    "delivery": "50"
  }, {
    "zipCode": "07820",
    "city": "",
    "state": "NJ",
    "delivery": "50"
  }, {
    "zipCode": "07821",
    "city": "",
    "state": "NJ",
    "delivery": "50"
  }, {
    "zipCode": "07822",
    "city": "",
    "state": "NJ",
    "delivery": "50"
  }, {
    "zipCode": "07825",
    "city": "",
    "state": "NJ",
    "delivery": "50"
  }, {
    "zipCode": "07826",
    "city": "",
    "state": "NJ",
    "delivery": "50"
  }, {
    "zipCode": "07830",
    "city": "",
    "state": "NJ",
    "delivery": "50"
  }, {
    "zipCode": "07838",
    "city": "",
    "state": "NJ",
    "delivery": "50"
  }, {
    "zipCode": "07840",
    "city": "",
    "state": "NJ",
    "delivery": "50"
  }, {
    "zipCode": "07846",
    "city": "",
    "state": "NJ",
    "delivery": "50"
  }, {
    "zipCode": "07848",
    "city": "",
    "state": "NJ",
    "delivery": "50"
  }, {
    "zipCode": "07850",
    "city": "",
    "state": "NJ",
    "delivery": "50"
  }, {
    "zipCode": "07853",
    "city": "",
    "state": "NJ",
    "delivery": "50"
  }, {
    "zipCode": "07860",
    "city": "",
    "state": "NJ",
    "delivery": "50"
  }, {
    "zipCode": "07863",
    "city": "",
    "state": "NJ",
    "delivery": "50"
  }, {
    "zipCode": "07865",
    "city": "",
    "state": "NJ",
    "delivery": "50"
  }, {
    "zipCode": "07870",
    "city": "",
    "state": "NJ",
    "delivery": "50"
  }, {
    "zipCode": "07871",
    "city": "",
    "state": "NJ",
    "delivery": "50"
  }, {
    "zipCode": "07880",
    "city": "",
    "state": "NJ",
    "delivery": "50"
  }, {
    "zipCode": "07882",
    "city": "",
    "state": "NJ",
    "delivery": "50"
  }, {
    "zipCode": "07901",
    "city": "",
    "state": "NJ",
    "delivery": "50"
  }, {
    "zipCode": "07920",
    "city": "",
    "state": "NJ",
    "delivery": "50"
  }, {
    "zipCode": "07921",
    "city": "",
    "state": "NJ",
    "delivery": "50"
  }, {
    "zipCode": "07922",
    "city": "",
    "state": "NJ",
    "delivery": "50"
  }, {
    "zipCode": "07928",
    "city": "",
    "state": "NJ",
    "delivery": "50"
  }, {
    "zipCode": "07931",
    "city": "",
    "state": "NJ",
    "delivery": "50"
  }, {
    "zipCode": "07932",
    "city": "",
    "state": "NJ",
    "delivery": "50"
  }, {
    "zipCode": "07933",
    "city": "",
    "state": "NJ",
    "delivery": "50"
  }, {
    "zipCode": "07936",
    "city": "",
    "state": "NJ",
    "delivery": "50"
  }, {
    "zipCode": "07939",
    "city": "",
    "state": "NJ",
    "delivery": "50"
  }, {
    "zipCode": "07940",
    "city": "",
    "state": "NJ",
    "delivery": "50"
  }, {
    "zipCode": "07946",
    "city": "",
    "state": "NJ",
    "delivery": "50"
  }, {
    "zipCode": "07974",
    "city": "",
    "state": "NJ",
    "delivery": "50"
  }, {
    "zipCode": "07977",
    "city": "",
    "state": "NJ",
    "delivery": "50"
  }, {
    "zipCode": "07979",
    "city": "",
    "state": "NJ",
    "delivery": "50"
  }, {
    "zipCode": "07980",
    "city": "",
    "state": "NJ",
    "delivery": "50"
  }, {
    "zipCode": "08801",
    "city": "",
    "state": "NJ",
    "delivery": "50"
  }, {
    "zipCode": "08805",
    "city": "",
    "state": "NJ",
    "delivery": "50"
  }, {
    "zipCode": "08807",
    "city": "",
    "state": "NJ",
    "delivery": "50"
  }, {
    "zipCode": "08809",
    "city": "",
    "state": "NJ",
    "delivery": "50"
  }, {
    "zipCode": "08812",
    "city": "",
    "state": "NJ",
    "delivery": "50"
  }, {
    "zipCode": "08817",
    "city": "",
    "state": "NJ",
    "delivery": "50"
  }, {
    "zipCode": "08820",
    "city": "",
    "state": "NJ",
    "delivery": "50"
  }, {
    "zipCode": "08821",
    "city": "",
    "state": "NJ",
    "delivery": "50"
  }, {
    "zipCode": "08826",
    "city": "",
    "state": "NJ",
    "delivery": "50"
  }, {
    "zipCode": "08827",
    "city": "",
    "state": "NJ",
    "delivery": "50"
  }, {
    "zipCode": "08829",
    "city": "",
    "state": "NJ",
    "delivery": "50"
  }, {
    "zipCode": "08830",
    "city": "",
    "state": "NJ",
    "delivery": "50"
  }, {
    "zipCode": "08833",
    "city": "",
    "state": "NJ",
    "delivery": "50"
  }, {
    "zipCode": "08835",
    "city": "",
    "state": "NJ",
    "delivery": "50"
  }, {
    "zipCode": "08836",
    "city": "",
    "state": "NJ",
    "delivery": "50"
  }, {
    "zipCode": "08840",
    "city": "",
    "state": "NJ",
    "delivery": "50"
  }, {
    "zipCode": "08846",
    "city": "",
    "state": "NJ",
    "delivery": "50"
  }, {
    "zipCode": "08853",
    "city": "",
    "state": "NJ",
    "delivery": "50"
  }, {
    "zipCode": "08854",
    "city": "",
    "state": "NJ",
    "delivery": "50"
  }, {
    "zipCode": "08858",
    "city": "",
    "state": "NJ",
    "delivery": "50"
  }, {
    "zipCode": "08869",
    "city": "",
    "state": "NJ",
    "delivery": "50"
  }, {
    "zipCode": "08873",
    "city": "",
    "state": "NJ",
    "delivery": "50"
  }, {
    "zipCode": "08876",
    "city": "",
    "state": "NJ",
    "delivery": "50"
  }, {
    "zipCode": "08880",
    "city": "",
    "state": "NJ",
    "delivery": "50"
  }, {
    "zipCode": "08889",
    "city": "",
    "state": "NJ",
    "delivery": "50"
  }, {
    "zipCode": "08890",
    "city": "",
    "state": "NJ",
    "delivery": "50"
  }

]
